NORAD_CAT_ID,OBJECT_NAME,OBJECT_TYPE,EPOCH,MEAN_MOTION,ECCENTRICITY,INCLINATION,RA_OF_ASC_NODE,ARG_OF_PERICENTER,MEAN_ANOMALY,BSTAR,MEAN_MOTION_DOT,MEAN_MOTION_DDOT,TLE_LINE0,TLE_LINE1,TLE_LINE2,SEMIMAJOR_AXIS,PERIOD,APOGEE,PERIGEE,DECAYED
52470.0,STARLINK-3859,PAYLOAD,2024-06-08 10:13:47,15.08837135,0.0001479,53.2161,48.8897,85.8922,274.2239,4.1607e-05,3.74e-06,0.0,0 STARLINK-3859,1 52470U 22049V   24160.42623952  .00000374  00000-0  41607-4 0  9997,2 52470  53.2161  48.8897 0001479  85.8922 274.2239 15.08837135115745,6917.889,95.438,540.777,538.731,0.0
52470.0,STARLINK-3859,PAYLOAD,2024-06-08 22:56:52,15.08839983,0.0001583,53.2173,46.5089,91.7383,268.3791,1.9741e-05,2.6e-07,0.0,0 STARLINK-3859,1 52470U 22049V   24160.95615864  .00000026  00000-0  19741-4 0  9996,2 52470  53.2173  46.5089 0001583  91.7383 268.3791 15.08839983115828,6917.88,95.438,540.841,538.65,0.0
52470.0,STARLINK-3859,PAYLOAD,2024-06-09 21:12:16,15.0883892,0.0001141,53.2183,42.3469,83.5622,276.55,6.507e-05,7.48e-06,0.0,0 STARLINK-3859,1 52470U 22049V   24161.88351908  .00000748  00000-0  65070-4 0  9992,2 52470  53.2183  42.3469 0001141  83.5622 276.5500 15.08838920116123,6917.884,95.438,540.538,538.959,0.0
52470.0,STARLINK-3859,PAYLOAD,2024-06-09 22:47:39,15.08838604,0.0001148,53.2184,42.05,80.6656,279.4466,5.9104e-05,6.53e-06,0.0,0 STARLINK-3859,1 52470U 22049V   24161.94975966  .00000653  00000-0  59104-4 0  9991,2 52470  53.2184  42.0500 0001148  80.6656 279.4466 15.08838604115973,6917.885,95.438,540.544,538.955,0.0
52470.0,STARLINK-3859,PAYLOAD,2024-06-10 01:58:25,15.0882439,0.0001347,53.2179,41.4536,84.3735,275.7411,0.00032144,4.829e-05,0.0,0 STARLINK-3859,1 52470U 22049V   24162.08223982  .00004829  00000-0  32144-3 0  9994,2 52470  53.2179  41.4536 0001347  84.3735 275.7411 15.08824390115997,6917.928,95.439,540.725,538.861,0.0
52470.0,STARLINK-3859,PAYLOAD,2024-06-10 22:38:26,15.08840941,0.0001142,53.2182,37.5898,94.1323,265.98,8.5889e-05,1.079e-05,0.0,0 STARLINK-3859,1 52470U 22049V   24162.94335822  .00001079  00000-0  85889-4 0  9995,2 52470  53.2182  37.5898 0001142  94.1323 265.9800 15.08840941116122,6917.878,95.437,540.533,538.952,0.0
52470.0,STARLINK-3859,PAYLOAD,2024-06-11 01:49:12,15.08842965,0.000125,53.2184,36.9932,93.2043,266.9092,0.00013143,1.805e-05,0.0,0 STARLINK-3859,1 52470U 22049V   24163.07583565  .00001805  00000-0  13143-3 0  9999,2 52470  53.2184  36.9932 0001250  93.2043 266.9092 15.08842965116307,6917.871,95.437,540.601,538.872,0.0
52470.0,STARLINK-3859,PAYLOAD,2024-06-11 08:10:44,15.08840829,0.0001144,53.2178,35.8027,88.3225,271.7898,0.00012046,1.63e-05,0.0,0 STARLINK-3859,1 52470U 22049V   24163.34079749  .00001630  00000-0  12046-3 0  9990,2 52470  53.2178  35.8027 0001144  88.3225 271.7898 15.08840829116183,6917.878,95.438,540.534,538.951,0.0
52470.0,STARLINK-3859,PAYLOAD,2024-06-12 01:39:59,15.08845036,0.0001191,53.2175,32.5319,80.8045,279.3082,7.8541e-05,9.63e-06,0.0,0 STARLINK-3859,1 52470U 22049V   24164.06943729  .00000963  00000-0  78541-4 0  9999,2 52470  53.2175  32.5319 0001191  80.8045 279.3082 15.08845036116293,6917.865,95.437,540.554,538.906,0.0
52470.0,STARLINK-3859,PAYLOAD,2024-06-12 08:01:32,15.0883646,0.0001109,53.217,31.3409,74.7886,285.3229,1.4469e-05,-5.8e-07,0.0,0 STARLINK-3859,1 52470U 22049V   24164.33440459 -.00000058  00000-0  14469-4 0  9996,2 52470  53.2170  31.3409 0001109  74.7886 285.3229 15.08836460116492,6917.891,95.438,540.523,538.989,0.0
52470.0,STARLINK-3859,PAYLOAD,2024-06-12 22:20:01,15.08837612,0.0001545,53.2185,28.6666,81.7021,278.4146,-3.9543e-05,-9.17e-06,0.0,0 STARLINK-3859,1 52470U 22049V   24164.93057005 -.00000917  00000-0 -39543-4 0  9998,2 52470  53.2185  28.6666 0001545  81.7021 278.4146 15.08837612116429,6917.888,95.438,540.822,538.684,0.0
52470.0,STARLINK-3859,PAYLOAD,2024-06-13 07:52:19,15.0884181,0.0001575,53.2188,26.8822,82.296,277.8211,1.8872e-05,1.2e-07,0.0,0 STARLINK-3859,1 52470U 22049V   24165.32800572  .00000012  00000-0  18872-4 0  9993,2 52470  53.2188  26.8822 0001575  82.2960 277.8211 15.08841810116484,6917.875,95.437,540.829,538.65,0.0
52470.0,STARLINK-3859,PAYLOAD,2024-06-13 22:10:47,15.08845732,0.0001387,53.2185,24.2067,80.6725,279.4424,3.1424e-05,2.12e-06,0.0,0 STARLINK-3859,1 52470U 22049V   24165.92416358  .00000212  00000-0  31424-4 0  9994,2 52470  53.2185  24.2067 0001387  80.6725 279.4424 15.08845732116577,6917.863,95.437,540.687,538.768,0.0
52470.0,STARLINK-3859,PAYLOAD,2024-06-14 14:04:39,15.08835358,0.0001656,53.2183,21.2343,86.1078,274.0103,0.00011589,1.557e-05,0.0,0 STARLINK-3859,1 52470U 22049V   24166.58656841  .00001557  00000-0  11589-3 0  9992,2 52470  53.2183  21.2343 0001656  86.1078 274.0103 15.08835358116679,6917.895,95.438,540.905,538.614,0.0
52470.0,STARLINK-3859,PAYLOAD,2024-06-14 22:01:34,15.08845324,0.000139,53.2178,19.7477,89.6333,270.4818,6.5244e-05,7.51e-06,0.0,0 STARLINK-3859,1 52470U 22049V   24166.91776276  .00000751  00000-0  65244-4 0  9997,2 52470  53.2178  19.7477 0001390  89.6333 270.4818 15.08845324116723,6917.864,95.437,540.691,538.768,0.0
52470.0,STARLINK-3859,PAYLOAD,2024-06-15 07:33:53,15.08849253,0.0001357,53.2179,17.9625,92.2386,267.8762,8.2131e-05,1.02e-05,0.0,0 STARLINK-3859,1 52470U 22049V   24167.31519747  .00001020  00000-0  82131-4 0  9994,2 52470  53.2179  17.9625 0001357  92.2386 267.8762 15.08849253116789,6917.852,95.437,540.656,538.778,0.0
52470.0,STARLINK-3859,PAYLOAD,2024-06-15 20:16:58,15.08847152,0.0001363,53.2185,15.5821,95.1195,264.9952,-2.1052e-05,-6.23e-06,0.0,0 STARLINK-3859,1 52470U 22049V   24167.84512157 -.00000623  00000-0 -21052-4 0  9995,2 52470  53.2185  15.5821 0001363  95.1195 264.9952 15.08847152116869,6917.859,95.437,540.666,538.781,0.0
52470.0,STARLINK-3859,PAYLOAD,2024-06-16 20:07:45,15.0884669,0.0001459,53.2182,11.1207,102.1833,257.9323,-1.441e-05,-5.17e-06,0.0,0 STARLINK-3859,1 52470U 22049V   24168.83871969 -.00000517  00000-0 -14410-4 0  9996,2 52470  53.2182  11.1207 0001459 102.1833 257.9323 15.08846690117018,6917.86,95.437,540.734,538.716,0.0
52470.0,STARLINK-3859,PAYLOAD,2024-06-17 19:58:33,15.08835424,0.000134,53.2182,6.6642,88.3809,271.7337,-1.498e-05,-5.26e-06,0.0,0 STARLINK-3859,1 52470U 22049V   24169.83232856 -.00000526  00000-0 -14980-4 0  9995,2 52470  53.2182   6.6642 0001340  88.3809 271.7337 15.08835424117165,6917.894,95.438,540.686,538.832,0.0
52470.0,STARLINK-3859,PAYLOAD,2024-06-18 11:52:24,15.08835707,0.0001267,53.2184,3.6901,88.3567,271.757,-2.137e-05,-6.28e-06,0.0,0 STARLINK-3859,1 52470U 22049V   24170.49473058 -.00000628  00000-0 -21370-4 0  9994,2 52470  53.2184   3.6901 0001267  88.3567 271.7570 15.08835707117265,6917.894,95.438,540.635,538.882,0.0
52470.0,STARLINK-3859,PAYLOAD,2024-06-18 19:49:20,15.0884039,0.0001251,53.2184,2.2053,89.0829,271.0306,1.6603e-05,-2.4e-07,0.0,0 STARLINK-3859,1 52470U 22049V   24170.82592637 -.00000024  00000-0  16603-4 0  9998,2 52470  53.2184   2.2053 0001251  89.0829 271.0306 15.08840390117477,6917.879,95.438,540.61,538.879,0.0
52470.0,STARLINK-3859,PAYLOAD,2024-06-19 05:21:38,15.08839662,0.0001219,53.2179,0.421,87.2713,272.8418,2.8125e-06,-2.43e-06,0.0,0 STARLINK-3859,1 52470U 22049V   24171.22336753 -.00000243  00000-0  28125-5 0  9994,2 52470  53.2179   0.4210 0001219  87.2713 272.8418 15.08839662117374,6917.881,95.438,540.59,538.903,0.0
52470.0,STARLINK-3859,PAYLOAD,2024-06-19 18:04:44,15.08831864,0.0001328,53.2186,358.0429,88.027,272.0874,3.4405e-05,2.6e-06,0.0,0 STARLINK-3859,1 52470U 22049V   24171.75329425  .00000260  00000-0  34405-4 0  9995,2 52470  53.2186 358.0429 0001328  88.0270 272.0874 15.08831864117615,6917.905,95.438,540.689,538.852,0.0
52470.0,STARLINK-3859,PAYLOAD,2024-06-20 11:33:58,15.08839387,0.0001348,53.2188,354.7727,97.9704,262.1441,3.366e-05,2.48e-06,0.0,0 STARLINK-3859,1 52470U 22049V   24172.48193100  .00000248  00000-0  33660-4 0  9993,2 52470  53.2188 354.7727 0001348  97.9704 262.1441 15.08839387117566,6917.882,95.438,540.68,538.815,0.0
52470.0,STARLINK-3859,PAYLOAD,2024-06-20 19:30:54,15.08839585,0.0001394,53.2203,353.2842,86.408,273.7072,1.5091e-06,-2.64e-06,0.0,0 STARLINK-3859,1 52470U 22049V   24172.81313343 -.00000264  00000-0  15091-5 0  9991,2 52470  53.2203 353.2842 0001394  86.4080 273.7072 15.08839585117778,6917.882,95.438,540.711,538.782,0.0
52470.0,STARLINK-3859,PAYLOAD,2024-06-21 19:21:41,15.08841333,0.0001343,53.2191,348.824,84.6723,275.4422,3.9133e-05,3.35e-06,0.0,0 STARLINK-3859,1 52470U 22049V   24173.80673305  .00000335  00000-0  39133-4 0  9998,2 52470  53.2191 348.8240 0001343  84.6723 275.4422 15.08841333117765,6917.876,95.437,540.67,538.812,0.0
52470.0,STARLINK-3859,PAYLOAD,2024-06-22 11:15:33,15.08838669,0.0001295,53.2186,345.8499,84.2947,275.8192,6.3707e-05,7.26e-06,0.0,0 STARLINK-3859,1 52470U 22049V   24174.46913350  .00000726  00000-0  63707-4 0  9996,2 52470  53.2186 345.8499 0001295  84.2947 275.8192 15.08838669118028,6917.884,95.438,540.645,538.854,0.0
52470.0,STARLINK-3859,PAYLOAD,2024-06-22 17:37:05,15.08841501,0.000145,53.2188,344.6612,71.0377,289.0772,7.2311e-05,8.63e-06,0.0,0 STARLINK-3859,1 52470U 22049V   24174.73409250  .00000863  00000-0  72311-4 0  9998,2 52470  53.2188 344.6612 0001450  71.0377 289.0772 15.08841501117904,6917.876,95.437,540.744,538.738,0.0
52470.0,STARLINK-3859,PAYLOAD,2024-06-23 14:17:06,15.08840733,0.0001375,53.2183,340.7955,78.0872,282.0274,2.346e-06,-2.51e-06,0.0,0 STARLINK-3859,1 52470U 22049V   24175.59521457 -.00000251  00000-0  23460-5 0  9991,2 52470  53.2183 340.7955 0001375  78.0872 282.0274 15.08840733118030,6917.878,95.438,540.694,538.792,0.0
52470.0,STARLINK-3859,PAYLOAD,2024-06-23 17:27:52,15.08841082,0.0001362,53.2183,340.2007,78.3054,281.8091,4.7614e-06,-2.12e-06,0.0,0 STARLINK-3859,1 52470U 22049V   24175.72769407 -.00000212  00000-0  47614-5 0  9999,2 52470  53.2183 340.2007 0001362  78.3054 281.8091 15.08841082118216,6917.877,95.437,540.684,538.8,0.0
